{
  "type": "FeatureCollection",
  "features": [
    {
      "type": "Feature",
      "properties": {
        "norad_id": 35585,
        "name": "COSMOS 2251 DEB",
        "group": "cosmos-2251-debris",
        "lat": -55.70945790041202,
        "lon": -57.6711321143891,
        "alt_km": 880.8539257204893,
        "timestamp": "2025-12-25T09:48:52.685362+00:00",
        "meta_object_name": "COSMOS 2251 DEB",
        "meta_object_id": "1993-036AMC",
        "meta_epoch": "2025-12-21T09:07:18.442848",
        "meta_mean_motion": 13.75269672,
        "meta_eccentricity": 0.03103986,
        "meta_inclination": 73.9717,
        "meta_ra_of_asc_node": 333.9847,
        "meta_arg_of_pericenter": 244.5384,
        "meta_mean_anomaly": 273.7703,
        "meta_ephemeris_type": 0,
        "meta_classification_type": "U",
        "meta_norad_cat_id": 35585,
        "meta_element_set_no": 999,
        "meta_rev_at_epoch": 64182,
        "meta_bstar": 0.00073727274,
        "meta_mean_motion_dot": 9.8e-06,
        "meta_mean_motion_ddot": 0,
        "tle_line1": "1 35585U 93036AMC 25355.38007457  .00000980  00000+0  73727-3 0  9996",
        "tle_line2": "2 35585  73.9717 333.9847 0310398 244.5384 273.7703 13.75269672641821"
      },
      "geometry": {
        "type": "Point",
        "coordinates": [
          -57.6711321143891,
          -55.70945790041202
        ]
      }
    },
    {
      "type": "Feature",
      "properties": {
        "norad_id": 35586,
        "name": "COSMOS 2251 DEB",
        "group": "cosmos-2251-debris",
        "lat": 29.011534584784123,
        "lon": 93.03744152956804,
        "alt_km": 762.9750410930637,
        "timestamp": "2025-12-25T09:48:52.685371+00:00",
        "meta_object_name": "COSMOS 2251 DEB",
        "meta_object_id": "1993-036AMD",
        "meta_epoch": "2025-12-23T04:09:08.280864",
        "meta_mean_motion": 13.52091848,
        "meta_eccentricity": 0.04042541,
        "meta_inclination": 74.0191,
        "meta_ra_of_asc_node": 285.7624,
        "meta_arg_of_pericenter": 158.8543,
        "meta_mean_anomaly": 271.7414,
        "meta_ephemeris_type": 0,
        "meta_classification_type": "U",
        "meta_norad_cat_id": 35586,
        "meta_element_set_no": 999,
        "meta_rev_at_epoch": 60523,
        "meta_bstar": 0.000355474,
        "meta_mean_motion_dot": 3.71e-06,
        "meta_mean_motion_ddot": 0,
        "tle_line1": "1 35586U 93036AMD 25357.17301251  .00000371  00000+0  35547-3 0  9997",
        "tle_line2": "2 35586  74.0191 285.7624 0404254 158.8543 271.7414 13.52091848605231"
      },
      "geometry": {
        "type": "Point",
        "coordinates": [
          93.03744152956804,
          29.011534584784123
        ]
      }
    },
    {
      "type": "Feature",
      "properties": {
        "norad_id": 35587,
        "name": "COSMOS 2251 DEB",
        "group": "cosmos-2251-debris",
        "lat": 57.3618148691964,
        "lon": 60.35599074778098,
        "alt_km": 716.5094406127064,
        "timestamp": "2025-12-25T09:48:52.685381+00:00",
        "meta_object_name": "COSMOS 2251 DEB",
        "meta_object_id": "1993-036AME",
        "meta_epoch": "2025-12-24T09:03:29.515680",
        "meta_mean_motion": 14.7155971,
        "meta_eccentricity": 0.01022451,
        "meta_inclination": 74.0058,
        "meta_ra_of_asc_node": 35.7588,
        "meta_arg_of_pericenter": 220.8718,
        "meta_mean_anomaly": 138.4757,
        "meta_ephemeris_type": 0,
        "meta_classification_type": "U",
        "meta_norad_cat_id": 35587,
        "meta_element_set_no": 999,
        "meta_rev_at_epoch": 66517,
        "meta_bstar": 0.00025641607,
        "meta_mean_motion_dot": 1.692e-05,
        "meta_mean_motion_ddot": 0,
        "tle_line1": "1 35587U 93036AME 25358.37742495  .00001692  00000+0  25642-3 0  9992",
        "tle_line2": "2 35587  74.0058  35.7588 0102245 220.8718 138.4757 14.71559710665172"
      },
      "geometry": {
        "type": "Point",
        "coordinates": [
          60.35599074778098,
          57.3618148691964
        ]
      }
    },
    {
      "type": "Feature",
      "properties": {
        "norad_id": 35593,
        "name": "COSMOS 2251 DEB",
        "group": "cosmos-2251-debris",
        "lat": -71.55473622981178,
        "lon": 144.45239507849095,
        "alt_km": 738.6450077949949,
        "timestamp": "2025-12-25T09:48:52.685391+00:00",
        "meta_object_name": "COSMOS 2251 DEB",
        "meta_object_id": "1993-036AML",
        "meta_epoch": "2025-12-24T00:35:28.875264",
        "meta_mean_motion": 14.25635831,
        "meta_eccentricity": 0.01050685,
        "meta_inclination": 74.0857,
        "meta_ra_of_asc_node": 268.1373,
        "meta_arg_of_pericenter": 272.0988,
        "meta_mean_anomaly": 86.8131,
        "meta_ephemeris_type": 0,
        "meta_classification_type": "U",
        "meta_norad_cat_id": 35593,
        "meta_element_set_no": 999,
        "meta_rev_at_epoch": 85226,
        "meta_bstar": 0.00070261528,
        "meta_mean_motion_dot": 1.738e-05,
        "meta_mean_motion_ddot": 0,
        "tle_line1": "1 35593U 93036AML 25358.02463976  .00001738  00000+0  70262-3 0  9994",
        "tle_line2": "2 35593  74.0857 268.1373 0105068 272.0988  86.8131 14.25635831852262"
      },
      "geometry": {
        "type": "Point",
        "coordinates": [
          144.45239507849095,
          -71.55473622981178
        ]
      }
    },
    {
      "type": "Feature",
      "properties": {
        "norad_id": 35594,
        "name": "COSMOS 2251 DEB",
        "group": "cosmos-2251-debris",
        "lat": 7.647905261264333,
        "lon": -101.32610510980379,
        "alt_km": 585.8743914317329,
        "timestamp": "2025-12-25T09:48:52.685401+00:00",
        "meta_object_name": "COSMOS 2251 DEB",
        "meta_object_id": "1993-036AMM",
        "meta_epoch": "2025-12-24T13:41:05.114112",
        "meta_mean_motion": 14.88271884,
        "meta_eccentricity": 0.00288579,
        "meta_inclination": 73.806,
        "meta_ra_of_asc_node": 82.6068,
        "meta_arg_of_pericenter": 193.3523,
        "meta_mean_anomaly": 166.6896,
        "meta_ephemeris_type": 0,
        "meta_classification_type": "U",
        "meta_norad_cat_id": 35594,
        "meta_element_set_no": 999,
        "meta_rev_at_epoch": 88361,
        "meta_bstar": 0.0016876649,
        "meta_mean_motion_dot": 0.00015714,
        "meta_mean_motion_ddot": 0,
        "tle_line1": "1 35594U 93036AMM 25358.57019808  .00015714  00000+0  16877-2 0  9996",
        "tle_line2": "2 35594  73.8060  82.6068 0028857 193.3523 166.6896 14.88271884883617"
      },
      "geometry": {
        "type": "Point",
        "coordinates": [
          -101.32610510980379,
          7.647905261264333
        ]
      }
    },
    {
      "type": "Feature",
      "properties": {
        "norad_id": 35602,
        "name": "COSMOS 2251 DEB",
        "group": "cosmos-2251-debris",
        "lat": -73.66106642515436,
        "lon": 76.66197124295856,
        "alt_km": 431.47638483876926,
        "timestamp": "2025-12-25T09:48:52.685411+00:00",
        "meta_object_name": "COSMOS 2251 DEB",
        "meta_object_id": "1993-036AMV",
        "meta_epoch": "2025-12-24T17:03:14.860224",
        "meta_mean_motion": 15.35551489,
        "meta_eccentricity": 0.00882722,
        "meta_inclination": 73.9941,
        "meta_ra_of_asc_node": 156.4571,
        "meta_arg_of_pericenter": 219.6047,
        "meta_mean_anomaly": 154.0021,
        "meta_ephemeris_type": 0,
        "meta_classification_type": "U",
        "meta_norad_cat_id": 35602,
        "meta_element_set_no": 999,
        "meta_rev_at_epoch": 90275,
        "meta_bstar": 0.00063780117,
        "meta_mean_motion_dot": 0.00025119,
        "meta_mean_motion_ddot": 0,
        "tle_line1": "1 35602U 93036AMV 25358.71058866  .00025119  00000+0  63780-3 0  9995",
        "tle_line2": "2 35602  73.9941 156.4571 0088272 219.6047 154.0021 15.35551489902758"
      },
      "geometry": {
        "type": "Point",
        "coordinates": [
          76.66197124295856,
          -73.66106642515436
        ]
      }
    },
    {
      "type": "Feature",
      "properties": {
        "norad_id": 35605,
        "name": "COSMOS 2251 DEB",
        "group": "cosmos-2251-debris",
        "lat": 24.759560933463362,
        "lon": -43.23070494329714,
        "alt_km": 460.3034914539003,
        "timestamp": "2025-12-25T09:48:52.685421+00:00",
        "meta_object_name": "COSMOS 2251 DEB",
        "meta_object_id": "1993-036AMY",
        "meta_epoch": "2025-12-22T14:36:44.008416",
        "meta_mean_motion": 15.38179315,
        "meta_eccentricity": 0.00228045,
        "meta_inclination": 73.869,
        "meta_ra_of_asc_node": 315.1978,
        "meta_arg_of_pericenter": 235.9327,
        "meta_mean_anomaly": 123.9715,
        "meta_ephemeris_type": 0,
        "meta_classification_type": "U",
        "meta_norad_cat_id": 35605,
        "meta_element_set_no": 999,
        "meta_rev_at_epoch": 66123,
        "meta_bstar": 0.0066900453,
        "meta_mean_motion_dot": 0.00262511,
        "meta_mean_motion_ddot": 0,
        "tle_line1": "1 35605U 93036AMY 25356.60884269  .00262511  00000+0  66900-2 0  9993",
        "tle_line2": "2 35605  73.8690 315.1978 0022804 235.9327 123.9715 15.38179315661234"
      },
      "geometry": {
        "type": "Point",
        "coordinates": [
          -43.23070494329714,
          24.759560933463362
        ]
      }
    }
  ]
}